[{"OBJECT_NAME":"DONGPO 09","OBJECT_ID":"2022-167D","EPOCH":"2026-03-09T22:41:56.215392","MEAN_MOTION":15.33957076,"ECCENTRICITY":0.00036388,"INCLINATION":97.6808,"RA_OF_ASC_NODE":235.7428,"ARG_OF_PERICENTER":115.2371,"MEAN_ANOMALY":244.9249,"EPHEMERIS_TYPE":0,"CLASSIFICATION_TYPE":"U","NORAD_CAT_ID":54685,"ELEMENT_SET_NO":999,"REV_AT_EPOCH":18022,"BSTAR":0.00050563217,"MEAN_MOTION_DOT":0.00016547,"MEAN_MOTION_DDOT":0},{"OBJECT_NAME":"COSMOS 1782","OBJECT_ID":"1986-074A","EPOCH":"2026-03-09T22:40:22.374624","MEAN_MOTION":15.33314157,"ECCENTRICITY":0.00054418,"INCLINATION":82.5242,"RA_OF_ASC_NODE":238.1482,"ARG_OF_PERICENTER":197.7479,"MEAN_ANOMALY":162.3574,"EPHEMERIS_TYPE":0,"CLASSIFICATION_TYPE":"U","NORAD_CAT_ID":16986,"ELEMENT_SET_NO":999,"REV_AT_EPOCH":13134,"BSTAR":0.00042191031,"MEAN_MOTION_DOT":0.00013623,"MEAN_MOTION_DDOT":0}]
